SL-16 R/B               
1 23405U 94077B   26160.27704201 -.00000262  00000+0 -10942-3 0  9999
2 23405  70.9805 159.8043 0002656 332.1841  27.9140 14.15572941629195
ARIANE 40+ R/B          
1 23561U 95021B   26160.20149479  .00000219  00000+0  83529-4 0  9997
2 23561  98.4411 230.3916 0005938 219.3843 200.8775 14.39828930632417
SL-16 R/B               
1 23705U 95058B   26160.21779193 -.00000021  00000+0  13556-4 0  9995
2 23705  71.0214 348.0914 0013434 331.2917  28.7465 14.15505163580808
SL-16 R/B               
1 24298U 96051B   26160.24119502  .00000125  00000+0  94253-4 0  9999
2 24298  70.7635 341.4660 0014783 348.9805  11.0988 14.12443276534574
ORBVIEW 2 (SEASTAR)     
1 24883U 97037A   26160.21365166  .00000227  00000+0  95236-4 0  9995
2 24883  98.8682 327.0122 0002949 132.6585 227.4849 14.35549386521607
SL-16 R/B               
1 25400U 98043G   26160.29423993  .00000046  00000+0  38078-4 0  9990
2 25400  98.8360 114.3858 0010891 106.9348 253.3026 14.26067331452046
SL-16 R/B               
1 25407U 98045B   26160.25444225 -.00000023  00000+0  12707-4 0  9993
2 25407  71.0122 349.0130 0009521 251.4360 108.5729 14.16204882440063
ISS (ZARYA)             
1 25544U 98067A   26160.19103139  .00006847  00000+0  12924-3 0  9997
2 25544  51.6332 339.6717 0006890 149.5560 210.5830 15.49678250570515
CZ-4B R/B               
1 25732U 99025C   26160.09449259  .00000047  00000+0  43136-4 0  9992
2 25732  98.6486 202.1364 0038235  82.2573 332.9726 14.18282081401123
OKEAN-O                 
1 25860U 99039A   26160.10186291  .00000540  00000+0  77458-4 0  9997
2 25860  97.9317 218.9921 0001808  77.8995 282.2420 14.80457585447915
SL-16 R/B               
1 25861U 99039B   26160.19869398  .00000429  00000+0  61073-4 0  9995
2 25861  97.9841 219.0843 0013946 324.9358  35.0935 14.81837249450412
DELTA 2 R/B             
1 25876U 99041E   26159.11557659  .00000878  00000+0  17901-3 0  9996
2 25876  51.7662 300.0336 0500945 255.1992  99.2946 14.12000165375800
HELIOS 1B               
1 25977U 99064A   26160.24367646  .00001287  00000+0  14673-3 0  9992
2 25977  98.1623  65.1534 0002404 102.4689 257.6796 14.87985477698875
TERRA                   
1 25994U 99068A   26160.29179171  .00000332  00000+0  76469-4 0  9996
2 25994  97.9459 210.1508 0001011 225.7960 262.5868 14.61096772408456
SL-16 R/B               
1 26070U 00006B   26160.29360778 -.00000256  00000+0 -10564-3 0  9991
2 26070  71.0032 265.2224 0015116  35.3977 324.8146 14.15836264361526
TITAN 4B R/B            
1 26474U 00047B   26160.24498952  .00002699  00000+0  16949-3 0  9999
2 26474  67.9873 142.9281 0045588 295.1584  64.4840 15.10150447406730
ENVISAT                 
1 27386U 02009A   26160.10528179  .00000077  00000+0  38843-4 0  9998
2 27386  98.3831 111.6041 0001321  90.2141 284.9551 14.39062928272322
IDEFIX & ARIANE 42P R/B 
1 27422U 02021B   26160.22892364  .00000193  00000+0  89725-4 0  9990
2 27422  98.5942  97.7984 0010610 280.0674  79.9312 14.31078423257115
AQUA                    
1 27424U 02022A   26160.26233328  .00000722  00000+0  15344-3 0  9999
2 27424  98.4273 129.3871 0001423  53.8829  57.2493 14.62145991282116
CZ-4B R/B               
1 27432U 02024C   26160.11327817  .00000031  00000+0  38431-4 0  9997
2 27432  98.8702 212.9855 0051068 122.7251 335.0322 14.14563204242169
MIDORI II (ADEOS-II)    
1 27597U 02056A   26160.29787672  .00000236  00000+0  11029-3 0  9992
2 27597  98.7875 119.4908 0002236  87.9238 272.2199 14.29345314223384
H-2A R/B                
1 27601U 02056E   26159.91833846  .00000198  00000+0  84170-4 0  9995
2 27601  98.3309 116.8945 0068929 249.5873 179.0801 14.33818661227183
CZ-4B R/B               
1 28059U 03049C   26160.25463890  .00000286  00000+0  77283-4 0  9998
2 28059  98.6896 158.7854 0047243 313.3438  46.3825 14.55094824199914
CZ-2C R/B               
1 28222U 04012C   26160.10779161  .00082418  00000+0  49560-3 0  9999
2 28222  97.7081 234.8409 0008757 319.5397  40.5216 15.77442882218629
SL-16 R/B               
1 28353U 04021B   26160.10012095 -.00000248  00000+0 -10413-3 0  9998
2 28353  71.0020  40.6618 0007478 264.4322  95.5947 14.14611870135761
CZ-4B R/B               
1 28415U 04035C   26160.09122485  .00006833  00000+0  23093-3 0  9997
2 28415  97.3375 193.2565 0030910   7.2678 352.9005 15.30506511193880
CZ-2C R/B               
1 28480U 04046B   26160.26830206  .00000057  00000+0  36699-4 0  9996
2 28480  98.1951  69.5436 0138166 243.8469 114.8446 14.27024881121561
ARIANE 5 R/B            
1 28499U 04049H   26160.04701392  .00000677  00000+0  80658-4 0  9990
2 28499  98.2718 331.9862 0084959  55.5593 305.3613 14.85437409159357
CZ-2D R/B               
1 28738U 05024B   26160.05645527  .00044619  00000+0  39209-3 0  9997
2 28738  97.3497 179.0839 0004659  71.6558 288.5210 15.68675206154060
ALOS (DAICHI)           
1 28931U 06002A   26160.12679246  .00000941  00000+0  16506-3 0  9997
2 28931  98.1320 115.7195 0001753  60.7299 299.4082 14.70033698 86915
