OBJECT_NAME,OBJECT_ID,EPOCH,MEAN_MOTION,ECCENTRICITY,INCLINATION,RA_OF_ASC_NODE,ARG_OF_PERICENTER,MEAN_ANOMALY,EPHEMERIS_TYPE,CLASSIFICATION_TYPE,NORAD_CAT_ID,ELEMENT_SET_NO,REV_AT_EPOCH,BSTAR,MEAN_MOTION_DOT,MEAN_MOTION_DDOT
SL-16 R/B,1994-077B,2026-06-09T06:38:56.429664,14.15572941,.00026562,70.9805,159.8043,332.1841,27.9140,0,U,23405,999,62919,-.10941716E-3,-.262E-5,0
ARIANE 40+ R/B,1995-021B,2026-06-09T04:50:09.149856,14.39828930,.00059388,98.4411,230.3916,219.3843,200.8775,0,U,23561,999,63241,.83528641E-4,.219E-5,0
SL-16 R/B,1995-058B,2026-06-09T05:13:37.222752,14.15505163,.00134341,71.0214,348.0914,331.2917,28.7465,0,U,23705,999,58080,.13555554E-4,-.21E-6,0
SL-16 R/B,1996-051B,2026-06-09T05:47:19.249728,14.12443276,.00147838,70.7635,341.4660,348.9805,11.0988,0,U,24298,999,53457,.94252926E-4,.125E-5,0
ORBVIEW 2 (SEASTAR),1997-037A,2026-06-09T05:07:39.503424,14.35549386,.00029496,98.8682,327.0122,132.6585,227.4849,0,U,24883,999,52160,.95235796E-4,.227E-5,0
SL-16 R/B,1998-043G,2026-06-09T07:03:42.329952,14.26067331,.00108916,98.8360,114.3858,106.9348,253.3026,0,U,25400,999,45204,.38078379E-4,.46E-6,0
SL-16 R/B,1998-045B,2026-06-09T06:06:23.810400,14.16204882,.00095212,71.0122,349.0130,251.4360,108.5729,0,U,25407,999,44006,.12706784E-4,-.23E-6,0
ISS (ZARYA),1998-067A,2026-06-09T04:35:05.112096,15.49678250,.00068905,51.6332,339.6717,149.5560,210.5830,0,U,25544,999,57051,.12923528E-3,.6847E-4,0
CZ-4B R/B,1999-025C,2026-06-09T02:16:04.159776,14.18282081,.00382355,98.6486,202.1364,82.2573,332.9726,0,U,25732,999,40112,.43135664E-4,.47E-6,0
OKEAN-O,1999-039A,2026-06-09T02:26:40.955424,14.80457585,.00018081,97.9317,218.9921,77.8995,282.2420,0,U,25860,999,44791,.77458E-4,.54E-5,0
SL-16 R/B,1999-039B,2026-06-09T04:46:07.159872,14.81837249,.00139465,97.9841,219.0843,324.9358,35.0935,0,U,25861,999,45041,.61072969E-4,.429E-5,0
DELTA 2 R/B,1999-041E,2026-06-08T02:46:25.817376,14.12000165,.05009452,51.7662,300.0336,255.1992,99.2946,0,U,25876,999,37580,.17901315E-3,.878E-5,0
HELIOS 1B,1999-064A,2026-06-09T05:50:53.646144,14.87985477,.00024045,98.1623,65.1534,102.4689,257.6796,0,U,25977,999,69887,.14672955E-3,.1287E-4,0
TERRA,1999-068A,2026-06-09T07:00:10.803744,14.61096772,.00010113,97.9459,210.1508,225.7960,262.5868,0,U,25994,999,40845,.76469259E-4,.332E-5,0
SL-16 R/B,2000-006B,2026-06-09T07:02:47.712192,14.15836264,.00151167,71.0032,265.2224,35.3977,324.8146,0,U,26070,999,36152,-.10563514E-3,-.256E-5,0
TITAN 4B R/B,2000-047B,2026-06-09T05:52:47.094528,15.10150447,.00455884,67.9873,142.9281,295.1584,64.4840,0,U,26474,999,40673,.16948853E-3,.2699E-4,0
ENVISAT,2002-009A,2026-06-09T02:31:36.346656,14.39062928,.00013211,98.3831,111.6041,90.2141,284.9551,0,U,27386,999,27232,.38842937E-4,.77E-6,0
IDEFIX & ARIANE 42P R/B,2002-021B,2026-06-09T05:29:39.002496,14.31078423,.00106104,98.5942,97.7984,280.0674,79.9312,0,U,27422,999,25711,.89724887E-4,.193E-5,0
AQUA,2002-022A,2026-06-09T06:17:45.595392,14.62145991,.00014235,98.4273,129.3871,53.8829,57.2493,0,U,27424,999,28211,.15343604E-3,.722E-5,0
CZ-4B R/B,2002-024C,2026-06-09T02:43:07.233888,14.14563204,.00510689,98.8702,212.9855,122.7251,335.0322,0,U,27432,999,24216,.38431025E-4,.31E-6,0
MIDORI II (ADEOS-II),2002-056A,2026-06-09T07:08:56.548608,14.29345314,.0002236,98.7875,119.4908,87.9238,272.2199,0,U,27597,999,22338,.11028707E-3,.236E-5,0
H-2A R/B,2002-056E,2026-06-08T22:02:24.442944,14.33818661,.00689292,98.3309,116.8945,249.5873,179.0801,0,U,27601,999,22718,.84170189E-4,.198E-5,0
CZ-4B R/B,2003-049C,2026-06-09T06:06:40.800960,14.55094824,.00472433,98.6896,158.7854,313.3438,46.3825,0,U,28059,999,19991,.77283105E-4,.286E-5,0
CZ-2C R/B,2004-012C,2026-06-09T02:35:13.195104,15.77442882,.00087575,97.7081,234.8409,319.5397,40.5216,0,U,28222,999,21862,.49559869E-3,.82418E-3,0
SL-16 R/B,2004-021B,2026-06-09T02:24:10.450080,14.14611870,.00074787,71.0020,40.6618,264.4322,95.5947,0,U,28353,999,13576,-.10412522E-3,-.248E-5,0
CZ-4B R/B,2004-035C,2026-06-09T02:11:21.827040,15.30506511,.00309104,97.3375,193.2565,7.2678,352.9005,0,U,28415,999,19388,.23092872E-3,.6833E-4,0
CZ-2C R/B,2004-046B,2026-06-09T06:26:21.297984,14.27024881,.01381662,98.1951,69.5436,243.8469,114.8446,0,U,28480,999,12156,.36698819E-4,.57E-6,0
ARIANE 5 R/B,2004-049H,2026-06-09T01:07:42.002688,14.85437409,.00849593,98.2718,331.9862,55.5593,305.3613,0,U,28499,999,15935,.80658193E-4,.677E-5,0
CZ-2D R/B,2005-024B,2026-06-09T01:21:17.735328,15.68675206,.00046599,97.3497,179.0839,71.6558,288.5210,0,U,28738,999,15406,.39209328E-3,.44619E-3,0
ALOS (DAICHI),2006-002A,2026-06-09T03:02:34.868544,14.70033698,.0001753,98.1320,115.7195,60.7299,299.4082,0,U,28931,999,8691,.16506072E-3,.941E-5,0
